NORAD_CAT_ID,OBJECT_NAME,OBJECT_TYPE,EPOCH,MEAN_MOTION,ECCENTRICITY,INCLINATION,RA_OF_ASC_NODE,ARG_OF_PERICENTER,MEAN_ANOMALY,BSTAR,MEAN_MOTION_DOT,MEAN_MOTION_DDOT,TLE_LINE0,TLE_LINE1,TLE_LINE2,SEMIMAJOR_AXIS,PERIOD,APOGEE,PERIGEE,DECAYED
52363.0,STARLINK-3830,PAYLOAD,2023-01-12 14:52:06,15.08810298,0.0002731,53.2173,330.9782,27.2059,332.9076,-0.00054332,-8.919e-05,0.0,0 STARLINK-3830,1 52363U 22045AJ  23012.61951553 -.00008919  00000-0 -54332-3 0  9994,2 52363  53.2173 330.9782 0002731  27.2059 332.9076 15.08810298 41863,6917.971,95.439,541.725,537.947,0.0
52363.0,STARLINK-3830,PAYLOAD,2023-01-12 21:13:38,15.08813867,0.0002718,53.2184,329.789,24.1317,335.9802,-0.00046789,-7.722e-05,0.0,0 STARLINK-3830,1 52363U 22045AJ  23012.88447706 -.00007722  00000-0 -46789-3 0  9991,2 52363  53.2184 329.7890 0002718  24.1317 335.9802 15.08813867 41909,6917.96,95.439,541.706,537.945,0.0
52363.0,STARLINK-3830,PAYLOAD,2023-01-13 00:24:25,15.08818665,0.0002912,53.2183,329.1962,23.1873,336.9251,-0.00032012,-5.377e-05,0.0,0 STARLINK-3830,1 52363U 22045AJ  23013.01695762 -.00005377  00000-0 -32012-3 0  9992,2 52363  53.2183 329.1962 0002912  23.1873 336.9251 15.08818665 41926,6917.946,95.439,541.825,537.7959999999998,0.0
52363.0,STARLINK-3830,PAYLOAD,2023-01-13 03:35:11,15.08827675,0.0002614,53.2182,328.5994,25.2952,334.8167,-0.00010585,-1.972e-05,0.0,0 STARLINK-3830,1 52363U 22045AJ  23013.14943524 -.00001972  00000-0 -10585-3 0  9996,2 52363  53.2182 328.5994 0002614  25.2952 334.8167 15.08827675 41949,6917.9180000000015,95.438,541.591,537.975,0.0
52363.0,STARLINK-3830,PAYLOAD,2023-01-13 16:18:16,15.08840296,0.000258,53.2174,326.2213,27.6511,332.4618,0.00045159,6.906e-05,0.0,0 STARLINK-3830,1 52363U 22045AJ  23013.67935642  .00006906  00000-0  45159-3 0  9991,2 52363  53.2174 326.2213 0002580  27.6511 332.4618 15.08840296 42027,6917.879,95.438,541.529,537.96,0.0
52363.0,STARLINK-3830,PAYLOAD,2023-01-14 06:36:44,15.08891732,0.0002469,53.2173,323.5437,35.1719,324.9435,0.0025964,0.00041336,0.0,0 STARLINK-3830,1 52363U 22045AJ  23014.27550971  .00041336  00000-0  25964-2 0  9993,2 52363  53.2173 323.5437 0002469  35.1719 324.9435 15.08891732 42118,6917.722,95.434,541.295,537.879,0.0
52363.0,STARLINK-3830,PAYLOAD,2023-01-14 12:58:16,15.08862055,0.0002493,53.2177,322.3541,40.9531,319.1648,0.0008294,0.00012945,0.0,0 STARLINK-3830,1 52363U 22045AJ  23014.54047286  .00012945  00000-0  82940-3 0  9995,2 52363  53.2177 322.3541 0002493  40.9531 319.1648 15.08862055 42150,6917.813,95.436,541.403,537.953,0.0
52363.0,STARLINK-3830,PAYLOAD,2023-01-14 20:55:13,15.0883155,0.0002398,53.2179,320.8706,66.5024,293.622,9.7889e-05,1.27e-05,0.0,0 STARLINK-3830,1 52363U 22045AJ  23014.87167944  .00001270  00000-0  97889-4 0  9993,2 52363  53.2179 320.8706 0002398  66.5024 293.6220 15.08831550 42207,6917.906,95.438,541.43,538.112,0.0
52363.0,STARLINK-3830,PAYLOAD,2023-01-15 04:52:09,15.08827433,0.000223,53.2177,319.3851,62.1732,297.9486,0.0012610999999999,0.00019833,0.0,0 STARLINK-3830,1 52363U 22045AJ  23015.20288502  .00019833  00000-0  12611-2 0  9997,2 52363  53.2177 319.3851 0002230  62.1732 297.9486 15.08827433 42253,6917.919,95.438,541.326,538.241,0.0
52363.0,STARLINK-3830,PAYLOAD,2023-01-16 04:42:55,15.08904156,0.000185,53.215,314.9211,59.7698,300.3477,0.0032046999999999,0.00051176,0.0,0 STARLINK-3830,1 52363U 22045AJ  23016.19647329  .00051176  00000-0  32047-2 0  9993,2 52363  53.2150 314.9211 0001850  59.7698 300.3477 15.08904156 42409,6917.684,95.433,540.8290000000001,538.27,0.0
52363.0,STARLINK-3830,PAYLOAD,2023-01-16 12:39:51,15.08864447,0.0002017,53.2151,313.4339,65.9858,294.1345,0.00094451,0.00014786,0.0,0 STARLINK-3830,1 52363U 22045AJ  23016.52767380  .00014786  00000-0  94451-3 0  9994,2 52363  53.2151 313.4339 0002017  65.9858 294.1345 15.08864447 42455,6917.806,95.436,541.066,538.275,0.0
52363.0,STARLINK-3830,PAYLOAD,2023-01-16 23:47:33,15.0883385,0.0001675,53.2157,311.3542,82.0079,278.1103,0.00063323,9.803e-05,0.0,0 STARLINK-3830,1 52363U 22045AJ  23016.99135787  .00009803  00000-0  63323-3 0  9993,2 52363  53.2157 311.3542 0001675  82.0079 278.1103 15.08833850 42524,6917.899,95.438,540.923,538.605,0.0
52363.0,STARLINK-3830,PAYLOAD,2023-01-17 12:30:38,15.08832974,0.0001556,53.2146,308.9728,81.3793,278.7375,0.00095485,0.00014938,0.0,0 STARLINK-3830,1 52363U 22045AJ  23017.52128399  .00014938  00000-0  95485-3 0  9993,2 52363  53.2146 308.9728 0001556  81.3793 278.7375 15.08832974 42605,6917.901999999999,95.438,540.8430000000001,538.69,0.0
52363.0,STARLINK-3830,PAYLOAD,2023-01-17 20:27:35,15.088199599999998,0.0001885,53.2139,307.4862,82.8145,277.3061,9.1033e-05,1.16e-05,0.0,0 STARLINK-3830,1 52363U 22045AJ  23017.85249014  .00001160  00000-0  91033-4 0  9996,2 52363  53.2139 307.4862 0001885  82.8145 277.3061 15.08819960 42654,6917.941999999999,95.439,541.111,538.503,0.0
52363.0,STARLINK-3830,PAYLOAD,2023-01-18 02:49:07,15.08832971,0.0001496999999999,53.2145,306.2964,79.2964,280.8197,0.00059508,9.194e-05,0.0,0 STARLINK-3830,1 52363U 22045AJ  23018.11744925  .00009194  00000-0  59508-3 0  9992,2 52363  53.2145 306.2964 0001497  79.2964 280.8197 15.08832971 42699,6917.901999999999,95.438,540.802,538.731,0.0
52363.0,STARLINK-3830,PAYLOAD,2023-01-18 12:21:26,15.0884661,0.0001754,53.2141,304.5116,87.1577,272.9616,0.0011117,0.00017452,0.0,0 STARLINK-3830,1 52363U 22045AJ  23018.51489089  .00017452  00000-0  11117-2 0  9992,2 52363  53.2141 304.5116 0001754  87.1577 272.9616 15.08846610 42759,6917.86,95.437,540.939,538.512,0.0
52363.0,STARLINK-3830,PAYLOAD,2023-01-19 04:15:16,15.08875702,0.0001486,53.2135,301.5374,89.0687,271.0475,0.0013333,0.00021016,0.0,0 STARLINK-3830,1 52363U 22045AJ  23019.17728002  .00021016  00000-0  13333-2 0  9999,2 52363  53.2135 301.5374 0001486  89.0687 271.0475 15.08875702 42858,6917.771,95.435,540.664,538.6080000000001,0.0
52363.0,STARLINK-3830,PAYLOAD,2023-01-19 12:12:13,15.08841751,0.0002907999999999,53.2151,300.053,68.6212,291.509,0.00059148,9.138e-05,0.0,0 STARLINK-3830,1 52363U 22045AJ  23019.50849228  .00009138  00000-0  59148-3 0  9996,2 52363  53.2151 300.0530 0002908  68.6212 291.5090 15.08841751 42904,6917.875,95.437,541.752,537.7280000000001,0.0
52363.0,STARLINK-3830,PAYLOAD,2023-01-20 00:55:19,15.08833269,0.0002699,53.2147,297.6735,75.2067,284.9224,0.0011462,0.00017998,0.0,0 STARLINK-3830,1 52363U 22045AJ  23020.03841575  .00017998  00000-0  11462-2 0  9992,2 52363  53.2147 297.6735 0002699  75.2067 284.9224 15.08833269 42984,6917.901,95.438,541.633,537.899,0.0
52363.0,STARLINK-3830,PAYLOAD,2023-01-20 21:35:20,15.08854436,0.0001546,53.214,293.8056,70.2926,289.8233,0.0014257999999999,0.00022485,0.0,0 STARLINK-3830,1 52363U 22045AJ  23020.89953798  .00022485  00000-0  14258-2 0  9990,2 52363  53.2140 293.8056 0001546  70.2926 289.8233 15.08854436 43119,6917.835999999999,95.437,540.771,538.632,0.0
52363.0,STARLINK-3830,PAYLOAD,2023-01-21 03:56:52,15.0887315,0.000162,53.2145,292.6173,70.5214,289.5953,0.0017515,0.00027723,0.0,0 STARLINK-3830,1 52363U 22045AJ  23021.16449299  .00027723  00000-0  17515-2 0  9996,2 52363  53.2145 292.6173 0001620  70.5214 289.5953 15.08873150 43151,6917.779,95.435,540.765,538.523,0.0
52363.0,STARLINK-3830,PAYLOAD,2023-01-21 21:26:06,15.08857893,0.0001865999999999,53.2153,289.3442,117.3428,242.7754,0.0012805,0.0002016,0.0,0 STARLINK-3830,1 52363U 22045AJ  23021.89313038  .00020160  00000-0  12805-2 0  9992,2 52363  53.2153 289.3442 0001866 117.3428 242.7754 15.08857893 43269,6917.826,95.436,540.982,538.4,0.0
52363.0,STARLINK-3830,PAYLOAD,2023-01-22 10:09:11,15.08851933,0.0001144,53.2152,286.9665,87.3696,272.7427,0.00071694,0.00011144,0.0,0 STARLINK-3830,1 52363U 22045AJ  23022.42304970  .00011144  00000-0  71694-3 0  9991,2 52363  53.2152 286.9665 0001144  87.3696 272.7427 15.08851933 43348,6917.844,95.437,540.5,538.918,0.0
52363.0,STARLINK-3830,PAYLOAD,2023-01-22 18:06:07,15.08827077,0.0001683,53.2142,285.4797,96.281,263.8374,9.3601e-05,1.201e-05,0.0,0 STARLINK-3830,1 52363U 22045AJ  23022.75425385  .00001201  00000-0  93601-4 0  9997,2 52363  53.2142 285.4797 0001683  96.2810 263.8374 15.08827077 43391,6917.92,95.438,540.9490000000001,538.621,0.0
52363.0,STARLINK-3830,PAYLOAD,2023-01-23 00:27:40,15.08842733,0.0001353,53.2142,284.2919,106.2315,253.8826,0.00026848,3.988e-05,0.0,0 STARLINK-3830,1 52363U 22045AJ  23023.01921332  .00003988  00000-0  26848-3 0  9992,2 52363  53.2142 284.2919 0001353 106.2315 253.8826 15.08842733 43432,6917.871999999999,95.437,540.673,538.8009999999999,0.0
52363.0,STARLINK-3830,PAYLOAD,2023-01-24 01:53:49,15.08868413,0.0001226,53.2132,279.5335,98.7792,261.3339,0.0011966,0.00018822,0.0,0 STARLINK-3830,1 52363U 22045AJ  23024.07904740  .00018822  00000-0  11966-2 0  9990,2 52363  53.2132 279.5335 0001226  98.7792 261.3339 15.08868413 43596,6917.794,95.436,540.507,538.81,0.0
52363.0,STARLINK-3830,PAYLOAD,2023-01-25 00:09:13,15.08844869,9.93e-05,53.2124,275.3689,109.1594,250.9505,0.00046672,7.149e-05,0.0,0 STARLINK-3830,1 52363U 22045AJ  23025.00641088  .00007149  00000-0  46672-3 0  9990,2 52363  53.2124 275.3689 0000993 109.1594 250.9505 15.08844869 43734,6917.866,95.437,540.4169999999999,539.044,0.0
52363.0,STARLINK-3830,PAYLOAD,2023-01-25 09:41:33,15.08832832,9.28e-05,53.212,273.5868,84.7925,275.3173,0.00030662,4.595e-05,0.0,0 STARLINK-3830,1 52363U 22045AJ  23025.40385550  .00004595  00000-0  30662-3 0  9997,2 52363  53.2120 273.5868 0000928  84.7925 275.3173 15.08832832 43798,6917.901999999999,95.438,540.409,539.125,0.0
52363.0,STARLINK-3830,PAYLOAD,2023-01-26 01:35:24,15.08845252,0.0001058,53.2129,270.6092,91.8249,268.2864,0.00038087,5.78e-05,0.0,0 STARLINK-3830,1 52363U 22045AJ  23026.06625592  .00005780  00000-0  38087-3 0  9999,2 52363  53.2129 270.6092 0001058  91.8249 268.2864 15.08845252 43896,6917.8640000000005,95.437,540.461,538.997,0.0
